[{"OBJECT_NAME":"STARLINK-6109","OBJECT_ID":"2023-046B","EPOCH":"2026-03-09T22:00:01.999584","MEAN_MOTION":15.06089505,"ECCENTRICITY":0.00015703,"INCLINATION":43.0008,"RA_OF_ASC_NODE":157.9064,"ARG_OF_PERICENTER":268.0495,"MEAN_ANOMALY":100.9448,"EPHEMERIS_TYPE":0,"CLASSIFICATION_TYPE":"U","NORAD_CAT_ID":56094,"ELEMENT_SET_NO":999,"REV_AT_EPOCH":567,"BSTAR":0.00012509635,"MEAN_MOTION_DOT":1.648e-5,"MEAN_MOTION_DDOT":0},{"OBJECT_NAME":"IRIDIUM 33 DEB","OBJECT_ID":"1997-051UN","EPOCH":"2026-03-08T06:46:46.443072","MEAN_MOTION":15.09674475,"ECCENTRICITY":0.00152582,"INCLINATION":86.3393,"RA_OF_ASC_NODE":271.884,"ARG_OF_PERICENTER":69.7211,"MEAN_ANOMALY":290.5665,"EPHEMERIS_TYPE":0,"CLASSIFICATION_TYPE":"U","NORAD_CAT_ID":35929,"ELEMENT_SET_NO":999,"REV_AT_EPOCH":89067,"BSTAR":0.003863549,"MEAN_MOTION_DOT":0.00062834,"MEAN_MOTION_DDOT":0}]
